#aV2021  9 20  0  0  0.00000000     288 DD+AD WGS84 FIT  NGA
## 2176  86400.00000000   300.00000000 59477 0.0000000000000
+   32     1  2  3  4  5  6  7  8  9 10 11 12 13 14 15 16 17
+         18 19 20 21 22 23 24 25 26 27 28 29 30 31 32  0  0
+          0  0  0  0  0  0  0  0  0  0  0  0  0  0  0  0  0
+          0  0  0  0  0  0  0  0  0  0  0  0  0  0  0  0  0
+          0  0  0  0  0  0  0  0  0  0  0  0  0  0  0  0  0
++         2  2  2  2  2  2  2  2  2  2  2  2  2  2  2  2  2
++         2  2  2  2  2  2  2  2  2  2  2  2  2  2  2  0  0
++         0  0  0  0  0  0  0  0  0  0  0  0  0  0  0  0  0
++         0  0  0  0  0  0  0  0  0  0  0  0  0  0  0  0  0
++         0  0  0  0  0  0  0  0  0  0  0  0  0  0  0  0  0
%c cc cc ccc ccc cccc cccc cccc cccc ccccc ccccc ccccc ccccc
%c cc cc ccc ccc cccc cccc cccc cccc ccccc ccccc ccccc ccccc
%f  0.0000000  0.000000000  0.00000000000  0.000000000000000
%f  0.0000000  0.000000000  0.00000000000  0.000000000000000
%i    0    0    0    0      0      0      0      0         0
%i    0    0    0    0      0      0      0      0         0
/*      NGA, ST. LOUIS,MO.                                  
/*   EPHEMERIS COMPUTED FROM 2 DAYS OF DATA                 
/*   EPOCHA v7 SMOOTHER                                     
/*   G2139 IERS2010 SATIGS SATAPC                           
*  2021  9 20  9 15  0.00000000
P  1  13756.638176  -5390.181025  21769.961977    562.353843                    
V  1   4807.857362  27859.236067   4134.077489     -0.110119                    
P  2 -13788.394743 -18054.445610 -13044.664286   -633.317021                    
V  2  -1898.917276 -17729.899335  25369.554628     -0.020529                    
P  3  22517.152013 -10967.145494   8581.826348   -295.832060                    
V  3  -6988.521532   8906.808963  29462.344047     -0.134360                    
P  4  22133.966974  -1907.553508 -14604.292158   -204.258367                    
V  4  16347.246653   8945.044079  23534.832645      0.001294                    
P  5 -19227.293446   -351.828424 -18552.487284    -55.014219                    
V  5  16349.974158 -16482.580399 -16624.767496     -0.012214                    
P  6  -6087.049363 -25671.642550  -2717.851865     78.042633                    
V  6   1482.016110  -3815.273748  32074.030051      0.074979                    
P  7   7408.469468 -20265.812827 -14783.955626    248.509768                    
V  7   5780.922652  18968.743233 -23032.790785      0.069034                    
P  8  25709.705488   5774.202665   4474.272083    -37.152423                    
V  8   4550.621160   4065.530274 -31008.125301     -0.013661                    
P  9  12686.356185 -11036.275549 -20634.746051   -361.208713                    
V  9  24270.536711   9539.603320   9826.822810     -0.004891                    
P 10  -5934.182271  19769.226295  16670.182019   -207.083927                    
V 10 -17319.847374  12069.400477 -20901.004077     -0.078832                    
P 11 -11697.302124 -19620.748105 -13576.449678     18.857130                    
V 11    317.120913 -17350.393042  24813.130589      0.020020                    
P 12 -23157.109441   8894.762787   9053.869338   -100.007917                    
V 12   8277.753191  -8852.902624  29197.335561     -0.054428                    
P 13 -22961.766296 -13439.806889  -1545.753433    188.084310                    
V 13   2711.378229  -1306.649161 -31753.672985      0.054106                    
P 14   6612.373145 -19671.798798  16543.856673     -2.471904                    
V 14  17974.927412 -11123.844058 -20460.908130     -0.080103                    
P 15 -26157.906538  -3050.412970   4261.933160   -119.788671                    
V 15  -4877.182727  -4755.108893 -30211.296162      0.027471                    
P 16  16165.109497   5967.681610 -20582.922495   -393.672654                    
V 16 -20626.838362  14875.407277 -11584.089437     -0.063693                    
P 17  -1243.839206 -16224.732460  21424.048207    507.375937                    
V 17  24114.788545  10107.804012   9253.183082      0.056024                    
P 18  -6345.580313  21769.952033 -13764.880217    320.242317                    
V 18  -4568.506314 -16994.179088 -24881.931193     -0.044373                    
P 19 -10841.159425 -17698.951888  16394.879971     55.346275                    
V 19  19636.497768   8183.881067  21311.401029      0.049804                    
P 20 -11396.831673 -10793.515255 -21455.251504    519.047437                    
V 20  18146.261372 -20341.734930    332.371603     -0.001904                    
P 21  16377.491262   3569.015659  21401.582254    143.653502                    
V 21   5730.585186  24846.410696  -8278.161557      0.019441                    
P 22  21044.561943  -5261.914480  15363.644061   -508.769738                    
V 22 -11722.313293  15616.360804  21851.476953      0.092820                    
P 23 -15716.895058  20163.829666   7034.331357     55.173427                    
V 23  -8478.265106   3937.130837 -30196.765363     -0.048297                    
P 24 -15857.040746    616.815827  21067.270360    238.531406                    
V 24  -6269.170937 -26704.736795  -3485.882863      0.081141                    
P 25 -20360.305455  16816.631245    118.973817    211.305941                    
V 25  -1630.636860  -2693.971668  31897.163583      0.062709                    
P 26   5837.666367  15325.203870 -20904.426659    136.216056                    
V 26 -20255.947567  17175.107525   7235.104643      0.041839                    
P 27  23039.063375  12538.538632  -5468.922959   -195.433618                    
V 27  -6899.292361   -477.936152 -30835.712169     -0.052300                    
P 28    465.380517 -17399.493980  20666.131748    497.704810                    
V 28  21040.477141 -13404.866392 -11890.578313     -0.071181                    
P 29 -15819.642712   7429.431535 -20062.822959   -414.465505                    
V 29 -22634.427179 -11330.974987  13617.754622     -0.056931                    
P 30   -122.554262 -25958.494270  -4915.384599   -474.688234                    
V 30   4581.379854   5794.345031 -30519.626877     -0.037653                    
P 31   7160.344371  24825.772759  -5048.568162   -140.736807                    
V 31  -2346.974314   6782.751800  31066.947519     -0.020086                    
P 32   5923.038449  16941.442739  19751.186614     -2.183464                    
V 32 -23667.339442  -7442.048311  13384.829130     -0.035296                    
EOF
